STARLINK-31445          
1 59312U 24056S   26068.76323938 -.00001838  00000+0 -57293-4 0  9991
2 59312  42.9999 237.3767 0001523 276.6676  83.4003 15.27565850111083
2025-155V               
1 64895U 25155V   26068.85787115  .00013705  00000+0  51002-3 0  9990
2 64895  97.4485  37.2490 0008035 152.8264 207.3397 15.27583301 65579
